{
  "type": "FeatureCollection",
  "name": "Delhi_Village_Alipur_Cadastral_Survey_Sheet_24",
  "crs": {
    "type": "name",
    "properties": {
      "name": "urn:ogc:def:crs:OGC:1.3:CRS84"
    }
  },
  "metadata": {
    "state": "Delhi",
    "district": "North Delhi",
    "tehsil": "Alipur",
    "village": "Alipur",
    "rect_no": "24",
    "survey_year": "2023",
    "source_id": "SRC-DELHI-GIS-004",
    "source_url": "https://revenue.delhi.gov.in/revenue-maps"
  },
  "features": [
    {
      "type": "Feature",
      "id": "DELHI|NORTH_DELHI|ALIPUR|ALIPUR|135",
      "properties": {
        "parcel_uid": "DELHI|NORTH_DELHI|ALIPUR|ALIPUR|135",
        "khasra_no": "135",
        "khasra": "135",
        "rect_no": "24",
        "state": "Delhi",
        "district": "North Delhi",
        "tehsil": "Alipur",
        "village": "Alipur",
        "area_hectares": 0.72,
        "area_bigha_biswa": "3-09",
        "area_sqm": 7200.0,
        "land_use": "Agricultural Cropland",
        "centroid": [
          77.1308,
          28.79655
        ],
        "recorded_tenure": "Class 1-A (Bhumidhar)",
        "khata_no": "00040",
        "khatauni_no": "00070",
        "recorded_owners": [
          "Suresh Chand"
        ],
        "source_id": "SRC-DELHI-GIS-004"
      },
      "geometry": {
        "type": "Polygon",
        "coordinates": [
          [
            [
              77.13,
              28.796
            ],
            [
              77.1316,
              28.796
            ],
            [
              77.1316,
              28.7971
            ],
            [
              77.13,
              28.7971
            ],
            [
              77.13,
              28.796
            ]
          ]
        ]
      }
    },
    {
      "type": "Feature",
      "id": "DELHI|NORTH_DELHI|ALIPUR|ALIPUR|136",
      "properties": {
        "parcel_uid": "DELHI|NORTH_DELHI|ALIPUR|ALIPUR|136",
        "khasra_no": "136",
        "khasra": "136",
        "rect_no": "24",
        "state": "Delhi",
        "district": "North Delhi",
        "tehsil": "Alipur",
        "village": "Alipur",
        "area_hectares": 0.815,
        "area_bigha_biswa": "3-18",
        "area_sqm": 8150.0,
        "land_use": "Agricultural Cropland",
        "centroid": [
          77.1324,
          28.79655
        ],
        "recorded_tenure": "Class 1-A (Bhumidhar)",
        "khata_no": "00041",
        "khatauni_no": "00071",
        "recorded_owners": [
          "Om Prakash"
        ],
        "source_id": "SRC-DELHI-GIS-004"
      },
      "geometry": {
        "type": "Polygon",
        "coordinates": [
          [
            [
              77.1316,
              28.796
            ],
            [
              77.1332,
              28.796
            ],
            [
              77.1332,
              28.7971
            ],
            [
              77.1316,
              28.7971
            ],
            [
              77.1316,
              28.796
            ]
          ]
        ]
      }
    },
    {
      "type": "Feature",
      "id": "DELHI|NORTH_DELHI|ALIPUR|ALIPUR|137",
      "properties": {
        "parcel_uid": "DELHI|NORTH_DELHI|ALIPUR|ALIPUR|137",
        "khasra_no": "137",
        "khasra": "137",
        "rect_no": "24",
        "state": "Delhi",
        "district": "North Delhi",
        "tehsil": "Alipur",
        "village": "Alipur",
        "area_hectares": 1.05,
        "area_bigha_biswa": "5-00",
        "area_sqm": 10500.0,
        "land_use": "Gaon Sabha Johad / Pond",
        "centroid": [
          77.134,
          28.79655
        ],
        "recorded_tenure": "Gaon Sabha Waterbody",
        "khata_no": "00042",
        "khatauni_no": "00072",
        "recorded_owners": [
          "Gram Sabha Alipur"
        ],
        "source_id": "SRC-DELHI-GIS-004"
      },
      "geometry": {
        "type": "Polygon",
        "coordinates": [
          [
            [
              77.1332,
              28.796
            ],
            [
              77.1348,
              28.796
            ],
            [
              77.1348,
              28.7971
            ],
            [
              77.1332,
              28.7971
            ],
            [
              77.1332,
              28.796
            ]
          ]
        ]
      }
    },
    {
      "type": "Feature",
      "id": "DELHI|NORTH_DELHI|ALIPUR|ALIPUR|138",
      "properties": {
        "parcel_uid": "DELHI|NORTH_DELHI|ALIPUR|ALIPUR|138",
        "khasra_no": "138",
        "khasra": "138",
        "rect_no": "24",
        "state": "Delhi",
        "district": "North Delhi",
        "tehsil": "Alipur",
        "village": "Alipur",
        "area_hectares": 0.94,
        "area_bigha_biswa": "4-10",
        "area_sqm": 9400.0,
        "land_use": "Village Common Pasture",
        "centroid": [
          77.1356,
          28.79655
        ],
        "recorded_tenure": "Gaon Sabha Charagah",
        "khata_no": "00043",
        "khatauni_no": "00073",
        "recorded_owners": [
          "Gram Sabha Alipur"
        ],
        "source_id": "SRC-DELHI-GIS-004"
      },
      "geometry": {
        "type": "Polygon",
        "coordinates": [
          [
            [
              77.1348,
              28.796
            ],
            [
              77.1364,
              28.796
            ],
            [
              77.1364,
              28.7971
            ],
            [
              77.1348,
              28.7971
            ],
            [
              77.1348,
              28.796
            ]
          ]
        ]
      }
    },
    {
      "type": "Feature",
      "id": "DELHI|NORTH_DELHI|ALIPUR|ALIPUR|139",
      "properties": {
        "parcel_uid": "DELHI|NORTH_DELHI|ALIPUR|ALIPUR|139",
        "khasra_no": "139",
        "khasra": "139",
        "rect_no": "24",
        "state": "Delhi",
        "district": "North Delhi",
        "tehsil": "Alipur",
        "village": "Alipur",
        "area_hectares": 0.68,
        "area_bigha_biswa": "3-05",
        "area_sqm": 6800.0,
        "land_use": "Agricultural Cropland",
        "centroid": [
          77.1372,
          28.79655
        ],
        "recorded_tenure": "Class 1-A (Bhumidhar)",
        "khata_no": "00044",
        "khatauni_no": "00074",
        "recorded_owners": [
          "Dharamvir Singh"
        ],
        "source_id": "SRC-DELHI-GIS-004"
      },
      "geometry": {
        "type": "Polygon",
        "coordinates": [
          [
            [
              77.1364,
              28.796
            ],
            [
              77.138,
              28.796
            ],
            [
              77.138,
              28.7971
            ],
            [
              77.1364,
              28.7971
            ],
            [
              77.1364,
              28.796
            ]
          ]
        ]
      }
    },
    {
      "type": "Feature",
      "id": "DELHI|NORTH_DELHI|ALIPUR|ALIPUR|140",
      "properties": {
        "parcel_uid": "DELHI|NORTH_DELHI|ALIPUR|ALIPUR|140",
        "khasra_no": "140",
        "khasra": "140",
        "rect_no": "24",
        "state": "Delhi",
        "district": "North Delhi",
        "tehsil": "Alipur",
        "village": "Alipur",
        "area_hectares": 0.76,
        "area_bigha_biswa": "3-12",
        "area_sqm": 7600.0,
        "land_use": "Agricultural Cropland",
        "centroid": [
          77.1308,
          28.79765
        ],
        "recorded_tenure": "Class 1-A (Bhumidhar)",
        "khata_no": "00045",
        "khatauni_no": "00075",
        "recorded_owners": [
          "Rajbir Singh"
        ],
        "source_id": "SRC-DELHI-GIS-004"
      },
      "geometry": {
        "type": "Polygon",
        "coordinates": [
          [
            [
              77.13,
              28.7971
            ],
            [
              77.1316,
              28.7971
            ],
            [
              77.1316,
              28.7982
            ],
            [
              77.13,
              28.7982
            ],
            [
              77.13,
              28.7971
            ]
          ]
        ]
      }
    },
    {
      "type": "Feature",
      "id": "DELHI|NORTH_DELHI|ALIPUR|ALIPUR|141",
      "properties": {
        "parcel_uid": "DELHI|NORTH_DELHI|ALIPUR|ALIPUR|141",
        "khasra_no": "141",
        "khasra": "141",
        "rect_no": "24",
        "state": "Delhi",
        "district": "North Delhi",
        "tehsil": "Alipur",
        "village": "Alipur",
        "area_hectares": 0.82,
        "area_bigha_biswa": "3-18",
        "area_sqm": 8200.0,
        "land_use": "Agricultural Cropland",
        "centroid": [
          77.1324,
          28.79765
        ],
        "recorded_tenure": "Class 1-A (Bhumidhar)",
        "khata_no": "00046",
        "khatauni_no": "00076",
        "recorded_owners": [
          "Mukesh Tyagi"
        ],
        "source_id": "SRC-DELHI-GIS-004"
      },
      "geometry": {
        "type": "Polygon",
        "coordinates": [
          [
            [
              77.1316,
              28.7971
            ],
            [
              77.1332,
              28.7971
            ],
            [
              77.1332,
              28.7982
            ],
            [
              77.1316,
              28.7982
            ],
            [
              77.1316,
              28.7971
            ]
          ]
        ]
      }
    },
    {
      "type": "Feature",
      "id": "DELHI|NORTH_DELHI|ALIPUR|ALIPUR|142",
      "properties": {
        "parcel_uid": "DELHI|NORTH_DELHI|ALIPUR|ALIPUR|142",
        "khasra_no": "142",
        "khasra": "142",
        "rect_no": "24",
        "state": "Delhi",
        "district": "North Delhi",
        "tehsil": "Alipur",
        "village": "Alipur",
        "area_hectares": 0.842,
        "area_bigha_biswa": "4-00",
        "area_sqm": 8420.0,
        "land_use": "Agricultural / Infrastructure Alignment Zone",
        "centroid": [
          77.134,
          28.79765
        ],
        "recorded_tenure": "Class 1-A (Bhumidhar)",
        "khata_no": "00047",
        "khatauni_no": "00077",
        "recorded_owners": [
          "Satish Kumar",
          "Rakesh Kumar"
        ],
        "source_id": "SRC-DELHI-GIS-004"
      },
      "geometry": {
        "type": "Polygon",
        "coordinates": [
          [
            [
              77.1332,
              28.7971
            ],
            [
              77.1348,
              28.7971
            ],
            [
              77.1348,
              28.7982
            ],
            [
              77.1332,
              28.7982
            ],
            [
              77.1332,
              28.7971
            ]
          ]
        ]
      }
    },
    {
      "type": "Feature",
      "id": "DELHI|NORTH_DELHI|ALIPUR|ALIPUR|143",
      "properties": {
        "parcel_uid": "DELHI|NORTH_DELHI|ALIPUR|ALIPUR|143",
        "khasra_no": "143",
        "khasra": "143",
        "rect_no": "24",
        "state": "Delhi",
        "district": "North Delhi",
        "tehsil": "Alipur",
        "village": "Alipur",
        "area_hectares": 0.521,
        "area_bigha_biswa": "2-10",
        "area_sqm": 5210.0,
        "land_use": "Agricultural Cropland",
        "centroid": [
          77.1356,
          28.79765
        ],
        "recorded_tenure": "Class 1-A (Bhumidhar)",
        "khata_no": "00048",
        "khatauni_no": "00078",
        "recorded_owners": [
          "Om Prakash"
        ],
        "source_id": "SRC-DELHI-GIS-004"
      },
      "geometry": {
        "type": "Polygon",
        "coordinates": [
          [
            [
              77.1348,
              28.7971
            ],
            [
              77.1364,
              28.7971
            ],
            [
              77.1364,
              28.7982
            ],
            [
              77.1348,
              28.7982
            ],
            [
              77.1348,
              28.7971
            ]
          ]
        ]
      }
    },
    {
      "type": "Feature",
      "id": "DELHI|NORTH_DELHI|ALIPUR|ALIPUR|144_1",
      "properties": {
        "parcel_uid": "DELHI|NORTH_DELHI|ALIPUR|ALIPUR|144_1",
        "khasra_no": "144/1",
        "khasra": "144/1",
        "rect_no": "24",
        "state": "Delhi",
        "district": "North Delhi",
        "tehsil": "Alipur",
        "village": "Alipur",
        "area_hectares": 0.312,
        "area_bigha_biswa": "1-10",
        "area_sqm": 3120.0,
        "land_use": "Public Arterial Road Reserve (UER-II)",
        "centroid": [
          77.1372,
          28.79765
        ],
        "recorded_tenure": "Government Public Road Reserve",
        "khata_no": "00049",
        "khatauni_no": "00079",
        "recorded_owners": [
          "Delhi Development Authority (DDA)"
        ],
        "source_id": "SRC-DELHI-GIS-004"
      },
      "geometry": {
        "type": "Polygon",
        "coordinates": [
          [
            [
              77.1364,
              28.7971
            ],
            [
              77.138,
              28.7971
            ],
            [
              77.138,
              28.7982
            ],
            [
              77.1364,
              28.7982
            ],
            [
              77.1364,
              28.7971
            ]
          ]
        ]
      }
    },
    {
      "type": "Feature",
      "id": "DELHI|NORTH_DELHI|ALIPUR|ALIPUR|144_2",
      "properties": {
        "parcel_uid": "DELHI|NORTH_DELHI|ALIPUR|ALIPUR|144_2",
        "khasra_no": "144/2",
        "khasra": "144/2",
        "rect_no": "24",
        "state": "Delhi",
        "district": "North Delhi",
        "tehsil": "Alipur",
        "village": "Alipur",
        "area_hectares": 0.45,
        "area_bigha_biswa": "2-03",
        "area_sqm": 4500.0,
        "land_use": "NHAI Highway Corridor (UER-II)",
        "centroid": [
          77.1308,
          28.79875
        ],
        "recorded_tenure": "Infrastructure Right of Way",
        "khata_no": "00050",
        "khatauni_no": "00080",
        "recorded_owners": [
          "National Highways Authority of India (NHAI)"
        ],
        "source_id": "SRC-DELHI-GIS-004"
      },
      "geometry": {
        "type": "Polygon",
        "coordinates": [
          [
            [
              77.13,
              28.7982
            ],
            [
              77.1316,
              28.7982
            ],
            [
              77.1316,
              28.7993
            ],
            [
              77.13,
              28.7993
            ],
            [
              77.13,
              28.7982
            ]
          ]
        ]
      }
    },
    {
      "type": "Feature",
      "id": "DELHI|NORTH_DELHI|ALIPUR|ALIPUR|145",
      "properties": {
        "parcel_uid": "DELHI|NORTH_DELHI|ALIPUR|ALIPUR|145",
        "khasra_no": "145",
        "khasra": "145",
        "rect_no": "24",
        "state": "Delhi",
        "district": "North Delhi",
        "tehsil": "Alipur",
        "village": "Alipur",
        "area_hectares": 1.15,
        "area_bigha_biswa": "5-10",
        "area_sqm": 11500.0,
        "land_use": "Agricultural Cropland",
        "centroid": [
          77.1324,
          28.79875
        ],
        "recorded_tenure": "Class 1-A (Bhumidhar)",
        "khata_no": "00051",
        "khatauni_no": "00081",
        "recorded_owners": [
          "Kuldeep Singh"
        ],
        "source_id": "SRC-DELHI-GIS-004"
      },
      "geometry": {
        "type": "Polygon",
        "coordinates": [
          [
            [
              77.1316,
              28.7982
            ],
            [
              77.1332,
              28.7982
            ],
            [
              77.1332,
              28.7993
            ],
            [
              77.1316,
              28.7993
            ],
            [
              77.1316,
              28.7982
            ]
          ]
        ]
      }
    },
    {
      "type": "Feature",
      "id": "DELHI|NORTH_DELHI|ALIPUR|ALIPUR|146",
      "properties": {
        "parcel_uid": "DELHI|NORTH_DELHI|ALIPUR|ALIPUR|146",
        "khasra_no": "146",
        "khasra": "146",
        "rect_no": "24",
        "state": "Delhi",
        "district": "North Delhi",
        "tehsil": "Alipur",
        "village": "Alipur",
        "area_hectares": 0.72,
        "area_bigha_biswa": "3-09",
        "area_sqm": 7200.0,
        "land_use": "Agricultural Cropland",
        "centroid": [
          77.134,
          28.79875
        ],
        "recorded_tenure": "Class 1-A (Bhumidhar)",
        "khata_no": "00052",
        "khatauni_no": "00082",
        "recorded_owners": [
          "Suresh Chand"
        ],
        "source_id": "SRC-DELHI-GIS-004"
      },
      "geometry": {
        "type": "Polygon",
        "coordinates": [
          [
            [
              77.1332,
              28.7982
            ],
            [
              77.1348,
              28.7982
            ],
            [
              77.1348,
              28.7993
            ],
            [
              77.1332,
              28.7993
            ],
            [
              77.1332,
              28.7982
            ]
          ]
        ]
      }
    },
    {
      "type": "Feature",
      "id": "DELHI|NORTH_DELHI|ALIPUR|ALIPUR|147",
      "properties": {
        "parcel_uid": "DELHI|NORTH_DELHI|ALIPUR|ALIPUR|147",
        "khasra_no": "147",
        "khasra": "147",
        "rect_no": "24",
        "state": "Delhi",
        "district": "North Delhi",
        "tehsil": "Alipur",
        "village": "Alipur",
        "area_hectares": 0.63,
        "area_bigha_biswa": "3-00",
        "area_sqm": 6300.0,
        "land_use": "Tubewell Command Area",
        "centroid": [
          77.1356,
          28.79875
        ],
        "recorded_tenure": "Class 1-A (Bhumidhar)",
        "khata_no": "00053",
        "khatauni_no": "00083",
        "recorded_owners": [
          "Satish Kumar",
          "Rakesh Kumar"
        ],
        "source_id": "SRC-DELHI-GIS-004"
      },
      "geometry": {
        "type": "Polygon",
        "coordinates": [
          [
            [
              77.1348,
              28.7982
            ],
            [
              77.1364,
              28.7982
            ],
            [
              77.1364,
              28.7993
            ],
            [
              77.1348,
              28.7993
            ],
            [
              77.1348,
              28.7982
            ]
          ]
        ]
      }
    },
    {
      "type": "Feature",
      "id": "DELHI|NORTH_DELHI|ALIPUR|ALIPUR|148",
      "properties": {
        "parcel_uid": "DELHI|NORTH_DELHI|ALIPUR|ALIPUR|148",
        "khasra_no": "148",
        "khasra": "148",
        "rect_no": "24",
        "state": "Delhi",
        "district": "North Delhi",
        "tehsil": "Alipur",
        "village": "Alipur",
        "area_hectares": 0.89,
        "area_bigha_biswa": "4-05",
        "area_sqm": 8900.0,
        "land_use": "Agricultural Cropland",
        "centroid": [
          77.1372,
          28.79875
        ],
        "recorded_tenure": "Class 1-A (Bhumidhar)",
        "khata_no": "00054",
        "khatauni_no": "00084",
        "recorded_owners": [
          "Om Prakash"
        ],
        "source_id": "SRC-DELHI-GIS-004"
      },
      "geometry": {
        "type": "Polygon",
        "coordinates": [
          [
            [
              77.1364,
              28.7982
            ],
            [
              77.138,
              28.7982
            ],
            [
              77.138,
              28.7993
            ],
            [
              77.1364,
              28.7993
            ],
            [
              77.1364,
              28.7982
            ]
          ]
        ]
      }
    },
    {
      "type": "Feature",
      "id": "DELHI|NORTH_DELHI|ALIPUR|ALIPUR|149",
      "properties": {
        "parcel_uid": "DELHI|NORTH_DELHI|ALIPUR|ALIPUR|149",
        "khasra_no": "149",
        "khasra": "149",
        "rect_no": "24",
        "state": "Delhi",
        "district": "North Delhi",
        "tehsil": "Alipur",
        "village": "Alipur",
        "area_hectares": 1.42,
        "area_bigha_biswa": "6-16",
        "area_sqm": 14200.0,
        "land_use": "Village Abadi Settlement (Lal Dora)",
        "centroid": [
          77.1308,
          28.79985
        ],
        "recorded_tenure": "Abadi Deh Residential",
        "khata_no": "00040",
        "khatauni_no": "00085",
        "recorded_owners": [
          "Gram Sabha Alipur"
        ],
        "source_id": "SRC-DELHI-GIS-004"
      },
      "geometry": {
        "type": "Polygon",
        "coordinates": [
          [
            [
              77.13,
              28.7993
            ],
            [
              77.1316,
              28.7993
            ],
            [
              77.1316,
              28.8004
            ],
            [
              77.13,
              28.8004
            ],
            [
              77.13,
              28.7993
            ]
          ]
        ]
      }
    },
    {
      "type": "Feature",
      "id": "DELHI|NORTH_DELHI|ALIPUR|ALIPUR|150",
      "properties": {
        "parcel_uid": "DELHI|NORTH_DELHI|ALIPUR|ALIPUR|150",
        "khasra_no": "150",
        "khasra": "150",
        "rect_no": "24",
        "state": "Delhi",
        "district": "North Delhi",
        "tehsil": "Alipur",
        "village": "Alipur",
        "area_hectares": 0.4,
        "area_bigha_biswa": "1-18",
        "area_sqm": 4000.0,
        "land_use": "Primary Health Centre Reserve",
        "centroid": [
          77.1324,
          28.79985
        ],
        "recorded_tenure": "Gaon Sabha Public Utility",
        "khata_no": "00041",
        "khatauni_no": "00086",
        "recorded_owners": [
          "Gram Sabha Alipur"
        ],
        "source_id": "SRC-DELHI-GIS-004"
      },
      "geometry": {
        "type": "Polygon",
        "coordinates": [
          [
            [
              77.1316,
              28.7993
            ],
            [
              77.1332,
              28.7993
            ],
            [
              77.1332,
              28.8004
            ],
            [
              77.1316,
              28.8004
            ],
            [
              77.1316,
              28.7993
            ]
          ]
        ]
      }
    },
    {
      "type": "Feature",
      "id": "DELHI|NORTH_DELHI|ALIPUR|ALIPUR|151",
      "properties": {
        "parcel_uid": "DELHI|NORTH_DELHI|ALIPUR|ALIPUR|151",
        "khasra_no": "151",
        "khasra": "151",
        "rect_no": "24",
        "state": "Delhi",
        "district": "North Delhi",
        "tehsil": "Alipur",
        "village": "Alipur",
        "area_hectares": 0.85,
        "area_bigha_biswa": "4-01",
        "area_sqm": 8500.0,
        "land_use": "Agricultural Cropland",
        "centroid": [
          77.134,
          28.79985
        ],
        "recorded_tenure": "Class 1-A (Bhumidhar)",
        "khata_no": "00042",
        "khatauni_no": "00087",
        "recorded_owners": [
          "Dharamvir Singh"
        ],
        "source_id": "SRC-DELHI-GIS-004"
      },
      "geometry": {
        "type": "Polygon",
        "coordinates": [
          [
            [
              77.1332,
              28.7993
            ],
            [
              77.1348,
              28.7993
            ],
            [
              77.1348,
              28.8004
            ],
            [
              77.1332,
              28.8004
            ],
            [
              77.1332,
              28.7993
            ]
          ]
        ]
      }
    },
    {
      "type": "Feature",
      "id": "DELHI|NORTH_DELHI|ALIPUR|ALIPUR|152",
      "properties": {
        "parcel_uid": "DELHI|NORTH_DELHI|ALIPUR|ALIPUR|152",
        "khasra_no": "152",
        "khasra": "152",
        "rect_no": "24",
        "state": "Delhi",
        "district": "North Delhi",
        "tehsil": "Alipur",
        "village": "Alipur",
        "area_hectares": 0.79,
        "area_bigha_biswa": "3-15",
        "area_sqm": 7900.0,
        "land_use": "Agricultural Cropland",
        "centroid": [
          77.1356,
          28.79985
        ],
        "recorded_tenure": "Class 1-A (Bhumidhar)",
        "khata_no": "00043",
        "khatauni_no": "00088",
        "recorded_owners": [
          "Mukesh Tyagi"
        ],
        "source_id": "SRC-DELHI-GIS-004"
      },
      "geometry": {
        "type": "Polygon",
        "coordinates": [
          [
            [
              77.1348,
              28.7993
            ],
            [
              77.1364,
              28.7993
            ],
            [
              77.1364,
              28.8004
            ],
            [
              77.1348,
              28.8004
            ],
            [
              77.1348,
              28.7993
            ]
          ]
        ]
      }
    },
    {
      "type": "Feature",
      "id": "DELHI|NORTH_DELHI|ALIPUR|ALIPUR|153",
      "properties": {
        "parcel_uid": "DELHI|NORTH_DELHI|ALIPUR|ALIPUR|153",
        "khasra_no": "153",
        "khasra": "153",
        "rect_no": "24",
        "state": "Delhi",
        "district": "North Delhi",
        "tehsil": "Alipur",
        "village": "Alipur",
        "area_hectares": 0.67,
        "area_bigha_biswa": "3-04",
        "area_sqm": 6700.0,
        "land_use": "Agricultural Cropland",
        "centroid": [
          77.1372,
          28.79985
        ],
        "recorded_tenure": "Class 1-A (Bhumidhar)",
        "khata_no": "00044",
        "khatauni_no": "00089",
        "recorded_owners": [
          "Kuldeep Singh"
        ],
        "source_id": "SRC-DELHI-GIS-004"
      },
      "geometry": {
        "type": "Polygon",
        "coordinates": [
          [
            [
              77.1364,
              28.7993
            ],
            [
              77.138,
              28.7993
            ],
            [
              77.138,
              28.8004
            ],
            [
              77.1364,
              28.8004
            ],
            [
              77.1364,
              28.7993
            ]
          ]
        ]
      }
    },
    {
      "type": "Feature",
      "id": "DELHI|NORTH_DELHI|ALIPUR|ALIPUR|154",
      "properties": {
        "parcel_uid": "DELHI|NORTH_DELHI|ALIPUR|ALIPUR|154",
        "khasra_no": "154",
        "khasra": "154",
        "rect_no": "24",
        "state": "Delhi",
        "district": "North Delhi",
        "tehsil": "Alipur",
        "village": "Alipur",
        "area_hectares": 0.75,
        "area_bigha_biswa": "3-12",
        "area_sqm": 7500.0,
        "land_use": "Agricultural Cropland",
        "centroid": [
          77.1308,
          28.80095
        ],
        "recorded_tenure": "Class 1-A (Bhumidhar)",
        "khata_no": "00045",
        "khatauni_no": "00070",
        "recorded_owners": [
          "Satish Kumar",
          "Rakesh Kumar"
        ],
        "source_id": "SRC-DELHI-GIS-004"
      },
      "geometry": {
        "type": "Polygon",
        "coordinates": [
          [
            [
              77.13,
              28.8004
            ],
            [
              77.1316,
              28.8004
            ],
            [
              77.1316,
              28.8015
            ],
            [
              77.13,
              28.8015
            ],
            [
              77.13,
              28.8004
            ]
          ]
        ]
      }
    },
    {
      "type": "Feature",
      "id": "DELHI|NORTH_DELHI|ALIPUR|ALIPUR|155",
      "properties": {
        "parcel_uid": "DELHI|NORTH_DELHI|ALIPUR|ALIPUR|155",
        "khasra_no": "155",
        "khasra": "155",
        "rect_no": "24",
        "state": "Delhi",
        "district": "North Delhi",
        "tehsil": "Alipur",
        "village": "Alipur",
        "area_hectares": 0.83,
        "area_bigha_biswa": "3-19",
        "area_sqm": 8300.0,
        "land_use": "Agricultural Cropland",
        "centroid": [
          77.1324,
          28.80095
        ],
        "recorded_tenure": "Class 1-A (Bhumidhar)",
        "khata_no": "00046",
        "khatauni_no": "00071",
        "recorded_owners": [
          "Rajbir Singh"
        ],
        "source_id": "SRC-DELHI-GIS-004"
      },
      "geometry": {
        "type": "Polygon",
        "coordinates": [
          [
            [
              77.1316,
              28.8004
            ],
            [
              77.1332,
              28.8004
            ],
            [
              77.1332,
              28.8015
            ],
            [
              77.1316,
              28.8015
            ],
            [
              77.1316,
              28.8004
            ]
          ]
        ]
      }
    },
    {
      "type": "Feature",
      "id": "DELHI|NORTH_DELHI|ALIPUR|ALIPUR|156",
      "properties": {
        "parcel_uid": "DELHI|NORTH_DELHI|ALIPUR|ALIPUR|156",
        "khasra_no": "156",
        "khasra": "156",
        "rect_no": "24",
        "state": "Delhi",
        "district": "North Delhi",
        "tehsil": "Alipur",
        "village": "Alipur",
        "area_hectares": 0.35,
        "area_bigha_biswa": "1-13",
        "area_sqm": 3500.0,
        "land_use": "Drainage Nullah Buffer",
        "centroid": [
          77.134,
          28.80095
        ],
        "recorded_tenure": "Gaon Sabha Water Drainage",
        "khata_no": "00047",
        "khatauni_no": "00072",
        "recorded_owners": [
          "Gram Sabha Alipur"
        ],
        "source_id": "SRC-DELHI-GIS-004"
      },
      "geometry": {
        "type": "Polygon",
        "coordinates": [
          [
            [
              77.1332,
              28.8004
            ],
            [
              77.1348,
              28.8004
            ],
            [
              77.1348,
              28.8015
            ],
            [
              77.1332,
              28.8015
            ],
            [
              77.1332,
              28.8004
            ]
          ]
        ]
      }
    },
    {
      "type": "Feature",
      "id": "DELHI|NORTH_DELHI|ALIPUR|ALIPUR|157",
      "properties": {
        "parcel_uid": "DELHI|NORTH_DELHI|ALIPUR|ALIPUR|157",
        "khasra_no": "157",
        "khasra": "157",
        "rect_no": "24",
        "state": "Delhi",
        "district": "North Delhi",
        "tehsil": "Alipur",
        "village": "Alipur",
        "area_hectares": 0.91,
        "area_bigha_biswa": "4-06",
        "area_sqm": 9100.0,
        "land_use": "Agricultural Cropland",
        "centroid": [
          77.1356,
          28.80095
        ],
        "recorded_tenure": "Class 1-A (Bhumidhar)",
        "khata_no": "00048",
        "khatauni_no": "00073",
        "recorded_owners": [
          "Om Prakash"
        ],
        "source_id": "SRC-DELHI-GIS-004"
      },
      "geometry": {
        "type": "Polygon",
        "coordinates": [
          [
            [
              77.1348,
              28.8004
            ],
            [
              77.1364,
              28.8004
            ],
            [
              77.1364,
              28.8015
            ],
            [
              77.1348,
              28.8015
            ],
            [
              77.1348,
              28.8004
            ]
          ]
        ]
      }
    },
    {
      "type": "Feature",
      "id": "DELHI|NORTH_DELHI|ALIPUR|ALIPUR|158",
      "properties": {
        "parcel_uid": "DELHI|NORTH_DELHI|ALIPUR|ALIPUR|158",
        "khasra_no": "158",
        "khasra": "158",
        "rect_no": "24",
        "state": "Delhi",
        "district": "North Delhi",
        "tehsil": "Alipur",
        "village": "Alipur",
        "area_hectares": 0.78,
        "area_bigha_biswa": "3-14",
        "area_sqm": 7800.0,
        "land_use": "Agricultural Cropland",
        "centroid": [
          77.1372,
          28.80095
        ],
        "recorded_tenure": "Class 1-A (Bhumidhar)",
        "khata_no": "00049",
        "khatauni_no": "00074",
        "recorded_owners": [
          "Suresh Chand"
        ],
        "source_id": "SRC-DELHI-GIS-004"
      },
      "geometry": {
        "type": "Polygon",
        "coordinates": [
          [
            [
              77.1364,
              28.8004
            ],
            [
              77.138,
              28.8004
            ],
            [
              77.138,
              28.8015
            ],
            [
              77.1364,
              28.8015
            ],
            [
              77.1364,
              28.8004
            ]
          ]
        ]
      }
    }
  ]
}